[{"OBJECT_NAME":"ONEWEB-0300","OBJECT_ID":"2021-075Q","EPOCH":"2026-03-09T20:14:41.088768","MEAN_MOTION":13.12442838,"ECCENTRICITY":0.00014542,"INCLINATION":87.9005,"RA_OF_ASC_NODE":10.3708,"ARG_OF_PERICENTER":78.4717,"MEAN_ANOMALY":281.6575,"EPHEMERIS_TYPE":0,"CLASSIFICATION_TYPE":"U","NORAD_CAT_ID":49089,"ELEMENT_SET_NO":999,"REV_AT_EPOCH":22217,"BSTAR":-3.6002126e-5,"MEAN_MOTION_DOT":0,"MEAN_MOTION_DDOT":0},{"OBJECT_NAME":"CZ-4C DEB","OBJECT_ID":"2012-029C","EPOCH":"2026-03-07T23:04:25.867200","MEAN_MOTION":13.19856994,"ECCENTRICITY":0.01247484,"INCLINATION":100.0705,"RA_OF_ASC_NODE":124.4519,"ARG_OF_PERICENTER":175.4998,"MEAN_ANOMALY":184.727,"EPHEMERIS_TYPE":0,"CLASSIFICATION_TYPE":"U","NORAD_CAT_ID":38661,"ELEMENT_SET_NO":999,"REV_AT_EPOCH":66020,"BSTAR":0.00045652398,"MEAN_MOTION_DOT":1.49e-6,"MEAN_MOTION_DDOT":0}]
